<?xml version="1.0" encoding="UTF-8"?>
<kml xmlns="http://www.opengis.net/kml/2.2">
  <Document>
    <name>Synthetic restricted zone</name>
    <Placemark>
      <name>Demo exclusion area</name>
      <description>Synthetic restriction for UI demonstration only.</description>
      <ExtendedData>
        <Data name="Type"><value>demo_no_fly</value></Data>
        <Data name="Altitudes"><value>not validated</value></Data>
      </ExtendedData>
      <Polygon>
        <altitudeMode>clampToGround</altitudeMode>
        <outerBoundaryIs>
          <LinearRing>
            <coordinates>
              30.3050,59.9340,0 30.3090,59.9340,0 30.3090,59.9380,0 30.3050,59.9380,0 30.3050,59.9340,0
            </coordinates>
          </LinearRing>
        </outerBoundaryIs>
      </Polygon>
    </Placemark>
  </Document>
</kml>
